STARLINK-30253          
1 57525U 23115E   26068.19272644  .00001136  00000+0  50811-4 0  9992
2 57525  42.9995   4.5394 0000834 276.6671  83.4085 15.27577538142273
FLOCK 4G-3              
1 62639U 25009AG  26068.80174065  .00011494  00000+0  43389-3 0  9993
2 62639  97.4062 151.4068 0001320 293.2042  66.9058 15.27179310 63727
